NORAD_CAT_ID,OBJECT_NAME,OBJECT_TYPE,EPOCH,MEAN_MOTION,ECCENTRICITY,INCLINATION,RA_OF_ASC_NODE,ARG_OF_PERICENTER,MEAN_ANOMALY,BSTAR,MEAN_MOTION_DOT,MEAN_MOTION_DDOT,TLE_LINE0,TLE_LINE1,TLE_LINE2,SEMIMAJOR_AXIS,PERIOD,APOGEE,PERIGEE,DECAYED
55284.0,STARLINK-5337,PAYLOAD,2024-03-23 07:29:08,14.98323282,0.0002948,70.001,50.5293,265.0053,95.077,2.3178e-05,1.84e-06,0.0,0 STARLINK-5337,1 55284U 23010R   24083.31190194  .00000184  00000-0  23178-4 0  9993,2 55284  70.0010  50.5293 0002948 265.0053  95.0770 14.98323282 65171,6950.214,96.107,574.128,570.03,0.0
55284.0,STARLINK-5337,PAYLOAD,2024-03-23 21:54:20,14.98334462,0.0003155,70.0005,49.0135,270.7363,89.3435,1.8056e-05,1.22e-06,0.0,0 STARLINK-5337,1 55284U 23010R   24083.91273495  .00000122  00000-0  18056-4 0  9996,2 55284  70.0005  49.0135 0003155 270.7363  89.3435 14.98334462 65560,6950.179,96.107,574.237,569.851,0.0
55284.0,STARLINK-5337,PAYLOAD,2024-03-24 04:18:52,14.98341301,0.0002973,70.0011,48.341,264.7413,95.3407,9.114e-05,9.95e-06,0.0,0 STARLINK-5337,1 55284U 23010R   24084.17976857  .00000995  00000-0  91140-4 0  9990,2 55284  70.0011  48.3410 0002973 264.7413  95.3407 14.98341301 65309,6950.158,96.106,574.089,569.957,0.0
55284.0,STARLINK-5337,PAYLOAD,2024-03-24 07:31:07,14.98351465,0.0002751,70.0016,48.0053,262.3925,97.6922,0.00017987,2.055e-05,0.0,0 STARLINK-5337,1 55284U 23010R   24084.31327882  .00002055  00000-0  17987-3 0  9999,2 55284  70.0016  48.0053 0002751 262.3925  97.6922 14.98351465 65321,6950.127,96.106,573.903,570.08,0.0
55284.0,STARLINK-5337,PAYLOAD,2024-03-24 21:56:21,14.98330629,0.0002309,70.0045,46.4933,246.7449,113.3467,0.00022118,2.547e-05,0.0,0 STARLINK-5337,1 55284U 23010R   24084.91413280  .00002547  00000-0  22118-3 0  9991,2 55284  70.0045  46.4933 0002309 246.7449 113.3467 14.98330629 65417,6950.191,96.107,573.661,570.451,0.0
55284.0,STARLINK-5337,PAYLOAD,2024-03-25 20:22:14,14.98327339,0.0002561,70.0028,44.133,267.4332,92.6534,-0.00023053,-2.842e-05,0.0,0 STARLINK-5337,1 55284U 23010R   24085.84877685 -.00002842  00000-0 -23053-3 0  9996,2 55284  70.0028  44.1330 0002561 267.4332  92.6534 14.98327339 65558,6950.201,96.107,573.846,570.286,0.0
55284.0,STARLINK-5337,PAYLOAD,2024-03-25 21:58:22,14.98325908,0.0002464,70.0033,43.9643,269.2295,90.8581,-0.00022572,-2.785e-05,0.0,0 STARLINK-5337,1 55284U 23010R   24085.91553824 -.00002785  00000-0 -22572-3 0  9991,2 55284  70.0033  43.9643 0002464 269.2295  90.8581 14.98325908 65864,6950.206,96.107,573.783,570.358,0.0
55284.0,STARLINK-5337,PAYLOAD,2024-03-26 04:22:55,14.98323139,0.0002518,70.0022,43.2919,259.9074,100.1801,-0.00015039,-1.886e-05,0.0,0 STARLINK-5337,1 55284U 23010R   24086.18258808 -.00001886  00000-0 -15039-3 0  9996,2 55284  70.0022  43.2919 0002518 259.9074 100.1801 14.98323139 65608,6950.214,96.107,573.829,570.329,0.0
55284.0,STARLINK-5337,PAYLOAD,2024-03-26 13:59:43,14.98330917,0.0003114,70.0006,42.2792,272.1545,87.9258,3.314e-05,3.02e-06,0.0,0 STARLINK-5337,1 55284U 23010R   24086.58313949  .00000302  00000-0  33140-4 0  9992,2 55284  70.0006  42.2792 0003114 272.1545  87.9258 14.98330917 65960,6950.19,96.107,574.219,569.891,0.0
55284.0,STARLINK-5337,PAYLOAD,2024-03-26 22:00:23,14.98337484,0.0003181,70.0005,41.4368,255.6758,104.4048,-4.7589e-05,-6.61e-06,0.0,0 STARLINK-5337,1 55284U 23010R   24086.91693702 -.00000661  00000-0 -47589-4 0  9999,2 55284  70.0005  41.4368 0003181 255.6758 104.4048 14.98337484 65716,6950.17,96.107,574.246,569.824,0.0
55284.0,STARLINK-5337,PAYLOAD,2024-03-27 04:24:54,14.98349659,0.0002629,70.0016,40.7662,248.8441,111.2437,0.0002347,2.71e-05,0.0,0 STARLINK-5337,1 55284U 23010R   24087.18396400  .00002710  00000-0  23470-3 0  9991,2 55284  70.0016  40.7662 0002629 248.8441 111.2437 14.98349659 65755,6950.132,96.106,573.824,570.17,0.0
55284.0,STARLINK-5337,PAYLOAD,2024-03-27 14:01:43,14.98340674,0.0002951,70.0049,39.7538,275.8858,84.1965,0.00032863,3.831e-05,0.0,0 STARLINK-5337,1 55284U 23010R   24087.58453160  .00003831  00000-0  32863-3 0  9993,2 55284  70.0049  39.7538 0002951 275.8858  84.1965 14.98340674 66114,6950.16,96.106,574.076,569.974,0.0
55284.0,STARLINK-5337,PAYLOAD,2024-03-27 20:26:16,14.98315689,0.0003329,70.0038,39.0806,273.8323,86.2456,0.00021087,2.423e-05,0.0,0 STARLINK-5337,1 55284U 23010R   24087.85158392  .00002423  00000-0  21087-3 0  9994,2 55284  70.0038  39.0806 0003329 273.8323  86.2456 14.98315689 65854,6950.237,96.108,574.416,569.788,0.0
55284.0,STARLINK-5337,PAYLOAD,2024-03-27 22:02:24,14.98322906,0.0003133,70.0024,38.9136,270.4751,89.6049,0.00022749,2.622e-05,0.0,0 STARLINK-5337,1 55284U 23010R   24087.91834105  .00002622  00000-0  22749-3 0  9991,2 55284  70.0024  38.9136 0003133 270.4751  89.6049 14.98322906 66164,6950.215,96.107,574.257,569.902,0.0
55284.0,STARLINK-5337,PAYLOAD,2024-03-28 04:26:56,14.98337138,0.0002699,70.0037,38.2404,266.9696,93.1154,0.00010547,1.166e-05,0.0,0 STARLINK-5337,1 55284U 23010R   24088.18537410  .00001166  00000-0  10547-3 0  9995,2 55284  70.0037  38.2404 0002699 266.9696  93.1154 14.98337138 65904,6950.171,96.107,573.912,570.16,0.0
55284.0,STARLINK-5337,PAYLOAD,2024-03-28 14:03:44,14.98334852,0.0002988,70.0044,37.2295,268.7149,91.3668,-5.1699e-05,-7.1e-06,0.0,0 STARLINK-5337,1 55284U 23010R   24088.58593247 -.00000710  00000-0 -51699-4 0  9999,2 55284  70.0044  37.2295 0002988 268.7149  91.3668 14.98334852 66263,6950.178,96.107,574.12,569.966,0.0
55284.0,STARLINK-5337,PAYLOAD,2024-03-28 22:04:24,14.98333896,0.0002784,70.0039,36.3883,269.688,90.396,-4.3846e-06,-1.45e-06,0.0,0 STARLINK-5337,1 55284U 23010R   24088.91973338 -.00000145  00000-0 -43846-5 0  9997,2 55284  70.0039  36.3883 0002784 269.6880  90.3960 14.98333896 66313,6950.181,96.107,573.981,570.111,0.0
55284.0,STARLINK-5337,PAYLOAD,2024-03-29 04:28:57,14.98336116,0.0002769,70.0034,35.7156,267.8092,92.275,2.9649e-05,2.61e-06,0.0,0 STARLINK-5337,1 55284U 23010R   24089.18677273  .00000261  00000-0  29649-4 0  9997,2 55284  70.0034  35.7156 0002769 267.8092  92.2750 14.98336116 66059,6950.174,96.107,573.963,570.114,0.0
55284.0,STARLINK-5337,PAYLOAD,2024-03-29 14:05:45,14.98336052,0.0002823,70.0034,34.7045,266.6012,93.4824,0.00016607,1.889e-05,0.0,0 STARLINK-5337,1 55284U 23010R   24089.58733338  .00001889  00000-0  16607-3 0  9992,2 55284  70.0034  34.7045 0002823 266.6012  93.4824 14.98336052 66419,6950.174,96.107,574.001,570.077,0.0
55284.0,STARLINK-5337,PAYLOAD,2024-03-29 22:06:26,14.98332654,0.0002843,70.0033,33.863,268.5182,91.5651,0.0002586,2.994e-05,0.0,0 STARLINK-5337,1 55284U 23010R   24089.92113507  .00002994  00000-0  25860-3 0  9999,2 55284  70.0033  33.8630 0002843 268.5182  91.5651 14.98332654 66465,6950.185,96.107,574.026,570.074,0.0
55284.0,STARLINK-5337,PAYLOAD,2024-03-30 04:30:58,14.98334566,0.0002839,70.0026,33.1909,270.7546,89.3288,0.00021988,2.532e-05,0.0,0 STARLINK-5337,1 55284U 23010R   24090.18817473  .00002532  00000-0  21988-3 0  9997,2 55284  70.0026  33.1909 0002839 270.7546  89.3288 14.98334566 66200,6950.179,96.107,574.017,570.071,0.0
55284.0,STARLINK-5337,PAYLOAD,2024-03-30 06:07:06,14.98334928,0.0002815,70.0027,33.0226,270.0515,90.0322,0.00022162,2.553e-05,0.0,0 STARLINK-5337,1 55284U 23010R   24090.25493440  .00002553  00000-0  22162-3 0  9997,2 55284  70.0027  33.0226 0002815 270.0515  90.0322 14.98334928 66519,6950.178,96.107,573.999,570.086,0.0
55284.0,STARLINK-5337,PAYLOAD,2024-03-30 22:08:27,14.98329888,0.0002882,70.0028,31.3394,269.8931,90.1898,0.00019073,2.183e-05,0.0,0 STARLINK-5337,1 55284U 23010R   24090.92253717  .00002183  00000-0  19073-3 0  9998,2 55284  70.0028  31.3394 0002882 269.8931  90.1898 14.98329888 66618,6950.193,96.107,574.061,570.055,0.0
55284.0,STARLINK-5337,PAYLOAD,2024-03-31 04:32:59,14.98330569,0.0002847,70.0013,30.6663,268.9504,91.1329,0.00011889,1.326e-05,0.0,0 STARLINK-5337,1 55284U 23010R   24091.18957728  .00001326  00000-0  11889-3 0  9995,2 55284  70.0013  30.6663 0002847 268.9504  91.1329 14.98330569 66359,6950.191,96.107,574.035,570.077,0.0
55284.0,STARLINK-5337,PAYLOAD,2024-03-31 12:33:39,14.98339598,0.0002828,70.0014,29.8247,269.1734,90.9101,-1.1053e-05,-2.25e-06,0.0,0 STARLINK-5337,1 55284U 23010R   24091.52337179 -.00000225  00000-0 -11053-4 0  9998,2 55284  70.0014  29.8247 0002828 269.1734  90.9101 14.98339598 66700,6950.163,96.106,573.994,570.063,0.0
55284.0,STARLINK-5337,PAYLOAD,2024-03-31 22:10:27,14.98337027,0.0002865,70.0011,28.8148,271.1703,88.9128,0.00016431,1.868e-05,0.0,0 STARLINK-5337,1 55284U 23010R   24091.92392973  .00001868  00000-0  16431-3 0  9991,2 55284  70.0011  28.8148 0002865 271.1703  88.9128 14.98337027 66763,6950.171,96.107,574.027,570.045,0.0
55284.0,STARLINK-5337,PAYLOAD,2024-04-01 02:58:51,14.98339703,0.0002833,70.0012,28.3103,269.5503,90.5332,0.00018977,2.173e-05,0.0,0 STARLINK-5337,1 55284U 23010R   24092.12420730  .00002173  00000-0  18977-3 0  9994,2 55284  70.0012  28.3103 0002833 269.5503  90.5332 14.98339703 66493,6950.163,96.106,573.997,570.059,0.0
55284.0,STARLINK-5337,PAYLOAD,2024-04-01 12:35:39,14.98371239,0.0002313,70.0044,27.2993,279.188,80.9017,-0.00083747,-0.00010081,0.0,0 STARLINK-5337,1 55284U 23010R   24092.52475932 -.00010081  00000-0 -83747-3 0  9998,2 55284  70.0044  27.2993 0002313 279.1880  80.9017 14.98371239 66551,6950.065,96.104,573.538,570.323,0.0
55284.0,STARLINK-5337,PAYLOAD,2024-04-01 20:36:20,14.98328273,0.0002837,70.0011,26.4586,271.269,88.8144,0.00010393,1.147e-05,0.0,0 STARLINK-5337,1 55284U 23010R   24092.85857618  .00001147  00000-0  10393-3 0  9997,2 55284  70.0011  26.4586 0002837 271.2690  88.8144 14.98328273 66601,6950.198,96.107,574.035,570.091,0.0
55284.0,STARLINK-5337,PAYLOAD,2024-04-02 12:37:40,14.98352591,0.0003607,70.0024,24.7761,267.9831,92.0915,0.0004413,5.18e-05,0.0,0 STARLINK-5337,1 55284U 23010R   24093.52615817  .00005180  00000-0  44130-3 0  9992,2 55284  70.0024  24.7761 0003607 267.9831  92.0915 14.98352591 66700,6950.123,96.106,574.495,569.481,0.0
